354P/LINEAR,e,5.2556,320.1293,132.9183,2.289406,0.2845246,0.12569016,143.0829,09/12.0/2021,2000,g 15.5,4.0
# From MPEC 2020-AA5
355P/LINEAR-NEAT,e,11.0413,51.4305,336.2584,3.471408,0.1523862,0.50736085,217.8628,09/12.0/2021,2000,g 15.5,2.0
# From MPEC 2021-F20
356P/WISE,e,9.6378,160.7967,225.9871,4.159091,0.1162001,0.35521886,158.5279,09/12.0/2021,2000,g 14.0,4.0
# From MPC114609
357P/Hill,e,6.3125,44.5654,1.3884,4.459962,0.1046423,0.43499264,125.7587,09/12.0/2021,2000,g 15.5,4.0
# From MPEC 2020-HN5
358P/PANSTARRS,e,11.0585,85.7052,299.7360,3.147319,0.1765196,0.23857918,220.4907,09/12.0/2021,2000,g 18.0,4.0
# From MPC110086
359P/LONEOS,e,10.2676,149.7558,200.1739,4.639599,0.0986242,0.32418695,146.1619,09/12.0/2021,2000,g 13.5,4.0
# From MPC108599
360P/WISE,e,24.1081,2.1903,354.1369,3.701842,0.1383813,0.49904182,205.3683,09/12.0/2021,2000,g 19.5,6.0
# From MPC114609
361P/Spacewatch,e,13.8949,203.2505,219.0354,4.937916,0.0898232,0.43821525,104.8844,09/12.0/2021,2000,g 12.0,4.0
# From MPEC 2017-V13
362P/,e,15.5562,192.5611,53.7006,3.969363,0.1246301,0.27929326,230.0711,09/12.0/2021,2000,g 12.9,2.0
# From MPC114609
363P/Lemmon,e,5.4089,146.8901,341.2496,3.554505,0.1470738,0.52398187,189.9256,09/12.0/2021,2000,g 17.5,4.0
# From MPEC 2021-F20
364P/PANSTARRS,e,12.1382,46.1821,212.0137,2.879390,0.2017221,0.72210898,237.1722,09/12.0/2021,2000,g 17.0,2.0
# From MPC111775
365P/PANSTARRS,e,9.8221,87.1107,66.5010,3.173449,0.1743439,0.57824798,227.7539,09/12.0/2021,2000,g 17.0,4.0
# From MPC114610
366P/Spacewatch,e,8.8585,70.7603,153.1284,3.495936,0.1507852,0.34817540,173.3415,09/12.0/2021,2000,g 15.0,4.0
# From MPC112395
367P/Catalina,e,8.4618,58.7216,172.8981,3.506029,0.1501346,0.28011776,177.0717,09/12.0/2021,2000,g 17.5,2.0
# From MPC114610
368P/NEAT,e,15.4811,257.9296,118.8039,5.527248,0.0758474,0.62652413,82.9160,09/12.0/2021,2000,g 14.0,4.0
# From MPC114610
369P/Hill,e,10.3160,47.2929,13.1693,4.383729,0.1073838,0.55459015,114.1202,09/12.0/2021,2000,g 15.0,4.0
# From MPEC 2021-F20
370P/NEAT,e,19.4081,55.1073,356.6789,6.434386,0.0603870,0.61473871,71.8777,09/12.0/2021,2000,g 13.0,4.0
# From MPC114610
371P/LINEAR-Skiff,e,17.3782,67.2903,308.4725,4.180899,0.1152921,0.47678425,123.6911,09/12.0/2021,2000,g 16.0,4.0
# From MPEC 2020-K19
372P/McNaught,e,9.5102,325.8156,27.3583,4.505051,0.1030753,0.15275103,108.8015,09/12.0/2021,2000,g 13.5,4.0
# From MPEC 2021-F20
373P/Rinner,e,13.7629,231.9487,221.0779,3.803104,0.1328914,0.39225550,117.9124,09/12.0/2021,2000,g 14.5,4.0
# From MPC114610
374P/Larson,e,10.7649,7.9124,51.4734,4.973073,0.0888724,0.46266101,86.6674,09/12.0/2021,2000,g 14.0,4.0
# From MPEC 2021-F20
375P/Hill,e,17.3614,359.9484,119.4405,5.555115,0.0752774,0.65854091,74.9851,09/12.0/2021,2000,g 16.0,4.0
# From MPEC 2020-W26
376P/LONEOS,e,1.1887,314.7155,284.6610,5.822577,0.0701506,0.51717967,50.2748,09/12.0/2021,2000,g 12.5,4.0
# From MPEC 2021-N06
377P/Scotti,e,9.0235,226.0612,355.0508,6.709698,0.0567087,0.25219802,24.2110,09/12.0/2021,2000,g  9.5,4.0
# From MPEC 2021-R75
378P/McNaught,e,19.0505,94.3605,193.8599,6.372776,0.0612648,0.46998358,20.0843,09/12.0/2021,2000,g 12.0,4.0
# From MPC115889
379P/Spacewatch,e,12.4289,183.8224,30.9016,3.519290,0.1492868,0.34044770,115.3754,09/12.0/2021,2000,g 15.0,4.0
# From MPEC 2020-KB7
380P/PANSTARRS,e,8.2789,132.9642,87.9656,4.497583,0.1033321,0.33393634,86.1569,09/12.0/2021,2000,g 12.5,4.0
# From MPEC 2021-J28
381P/LINEAR-Spacewatch,e,28.3769,173.7654,173.1882,7.126038,0.0518122,0.68190238,37.0922,09/12.0/2021,2000,g 17.5,2.0
# From MPEC 2021-R75
382P/Larson,e,7.9988,174.4708,172.8929,6.446463,0.0602174,0.31561638,349.1590,09/12.0/2021,2000,g  8.0,4.0
# From MPC118844
383P/Christensen,e,12.3217,207.8589,133.6985,3.545565,0.1476304,0.59962856,101.3676,09/12.0/2021,2000,g 18.0,4.0
# From MPEC 2020-W26
384P/Kowalski,e,7.2843,354.2299,37.6163,2.900885,0.1994841,0.61569999,139.9174,09/12.0/2021,2000,g 19.5,4.0
# From MPEC 2021-F20
385P/Hill,e,16.8310,357.0609,44.3207,4.288320,0.1109873,0.40158311,80.8072,09/12.0/2021,2000,g 13.0,4.0
# From MPEC 2021-L04
386P/PANSTARRS,e,15.2296,134.9480,353.2053,4.056040,0.1206565,0.41624364,46.9096,09/12.0/2021,2000,g 14.5,4.0
# From MPEC 2021-J28
387P/Boattini,e,8.9199,259.3087,162.7695,4.798034,0.0937797,0.73619535,69.0895,09/12.0/2021,2000,g 15.0,4.0
# From MPEC 2021-F20
388P/Gibbs,e,23.8718,37.0419,42.3472,5.243357,0.0820899,0.61807679,64.1468,09/12.0/2021,2000,g 13.0,4.0
# From MPEC 2021-J28
389P/Siding Spring,e,160.0716,218.8548,249.3246,5.628216,0.0738156,0.70430012,45.9715,09/12.0/2021,2000,g 16.0,4.0
# From MPEC 2021-O56
390P/Gibbs,e,18.5622,152.2748,232.3529,5.804437,0.0704797,0.70719919,37.9650,09/12.0/2021,2000,g 12.0,4.0
# From MPEC 2021-F20
391P/Kowalski,e,21.2756,124.7317,187.0608,4.679773,0.0973569,0.12059049,123.6817,09/12.0/2021,2000,g  8.0,4.0
# From MPEC 2021-J28
392P/LINEAR,e,4.9308,24.8815,71.9465,6.144419,0.0647117,0.68279233,34.2470,09/12.0/2021,2000,g 14.5,4.0
# From MPEC 2021-BE3
393P/Spacewatch-Hill,e,16.7899,36.4125,328.3212,4.787542,0.0940882,0.12063077,64.6066,09/12.0/2021,2000,g 11.0,4.0
# From MPEC 2020-KB7
394P/PANSTARRS,e,8.5294,98.1252,54.5200,4.331866,0.1093180,0.36774676,71.2500,09/12.0/2021,2000,g 16.0,2.4
# From MPEC 2021-R75
395P/Catalina-NEAT,e,3.2767,223.7213,89.8060,6.549472,0.0588023,0.37935976,353.5567,09/12.0/2021,2000,g 10.0,4.0
# From MPEC 2020-KB7
396P/,e,5.4363,136.6644,8.5678,6.815786,0.0553898,0.41582381,41.3016,09/12.0/2021,2000,g 12.0,4.0
# From MPEC 2021-O56
397P/Lemmon,e,10.9287,8.2000,14.4468,3.827914,0.1316015,0.40513390,59.1643,09/12.0/2021,2000,g 12.0,4.0
# From MPEC 2021-L04
398P/Boattini,e,11.0154,127.4617,320.2248,3.127959,0.1781610,0.58264456,46.1899,09/12.0/2021,2000,g 15.5,4.0
# From MPEC 2021-F20
399P/PANSTARRS,e,13.3187,207.1442,214.2956,3.789845,0.1335894,0.44693670,15.0189,09/12.0/2021,2000,g 15.6,4.0
# From MPEC 2020-FB5
400P/PANSTARRS,e,10.9292,176.3936,238.7962,3.560161,0.1467235,0.40920178,31.3812,09/12.0/2021,2000,g 15.5,2.8
# From MPEC 2021-R75
401P/McNaught,e,12.8029,359.8825,309.3474,5.773218,0.0710521,0.58005984,45.8202,09/12.0/2021,2000,g 12.5,4.0
# From MPEC 2021-R75
402P/LINEAR,e,30.8525,123.0898,326.7362,7.012517,0.0530754,0.43845132,355.0337,09/12.0/2021,2000,g  8.0,4.0
# From MPEC 2021-J28
403P/Catalina,e,12.3214,163.8124,277.6589,5.427324,0.0779517,0.50345550,28.1139,09/12.0/2021,2000,g 12.0,4.0
# From MPEC 2021-R75
404P/Bressi,e,9.7223,261.4788,163.5380,4.814043,0.0933124,0.13676210,290.3159,09/12.0/2021,2000,g 10.0,4.0
# From MPEC 2021-L04
405P/Lemmon,e,9.3655,3.3143,112.2335,3.608463,0.1437873,0.68912683,37.6287,09/12.0/2021,2000,g 17.5,4.0
# From MPEC 2021-F20
406P/Gibbs,e,1.2135,11.4704,352.3867,3.574626,0.1458338,0.54203347,52.6819,09/12.0/2021,2000,g 17.0,4.0
# From MPEC 2021-F20
407P/PANSTARRS-Fuls,e,4.8893,80.7900,92.7149,3.461637,0.1530319,0.38448874,90.0790,09/12.0/2021,2000,g 14.0,4.0
# From MPEC 2021-R75
408P/Novichonok-Gerke,e,19.3384,189.4410,226.1432,4.758069,0.0949638,0.27084807,323.3337,09/12.0/2021,2000,g 11.0,4.0
# From MPEC 2021-O56
409P/LONEOS-Hill,e,17.1188,143.6716,15.1289,6.046592,0.0662885,0.70991456,15.0375,09/12.0/2021,2000,g 14.0,4.0
# From MPEC 2021-F20
410P/NEAT-LINEAR,e,9.3938,139.9803,313.0913,6.633030,0.0576947,0.51047738,4.6418,09/12.0/2021,2000,g 12.5,4.0
# From MPEC 2021-J28
411P/Christensen,e,12.3777,77.6690,46.6644,5.817497,0.0702425,0.58081494,16.1983,09/12.0/2021,2000,g 13.5,4.0
# From MPEC 2021-F20
412P/WISE,e,8.9312,0.8492,155.9177,3.109500,0.1797498,0.47976669,50.4458,09/12.0/2021,2000,g 17.0,4.0
# From MPEC 2021-O56
413P/Larson,e,15.9784,39.0255,186.0433,3.710153,0.1379165,0.42323544,7.4177,09/12.0/2021,2000,g 14.0,4.0
# From MPEC 2021-BE3
414P/STEREO,e,23.3838,257.7893,210.7298,2.794478,0.2109857,0.81163193,48.4477,09/12.0/2021,2000,g 19.0,4.0
# From MPEC 2021-N06
415P/Tenagra,e,31.7919,160.2947,346.2461,4.115412,0.1180549,0.19475268,24.6631,09/12.0/2021,2000,g 12.0,4.0
# From MPEC 2021-L04
416P/Scotti,e,3.3614,355.8123,134.5062,4.013019,0.1226019,0.45432596,25.5697,09/12.0/2021,2000,g 15.5,4.0
# From MPEC 2021-R75
417P/NEOWISE,e,8.1305,111.3501,129.4715,3.349234,0.1607999,0.55450768,22.9625,09/12.0/2021,2000,g 16.5,4.0
# From MPEC 2021-L04
418P/LINEAR,e,5.7974,277.6583,307.0990,5.080399,0.0860711,0.66481099,356.9389,09/12.0/2021,2000,g 13.0,4.0
# From MPEC 2021-R75
419P/PANSTARRS,e,2.8029,40.3898,187.4998,3.521306,0.1491587,0.27775034,353.2201,09/12.0/2021,2000,g 12.5,4.0
# From MPEC 2021-R75
420P/Hill,e,14.5030,173.9589,157.1258,5.522085,0.0759538,0.49506086,340.8069,09/12.0/2021,2000,g 11.5,4.0
# From MPEC 2021-L04
421P/McNaught,e,10.0804,55.3487,259.8214,5.075658,0.0861917,0.67559325,19.7531,09/12.0/2021,2000,g 14.0,4.0
# From MPEC 2021-R75
422P/Christensen,e,39.5318,36.0682,305.1444,6.318806,0.0620514,0.50857681,352.3143,09/12.0/2021,2000,g 11.0,4.0
# From MPEC 2021-N06
423P/Lemmon,e,8.3462,33.3146,80.4136,6.163663,0.0644089,0.12048974,359.4789,09/12.0/2021,2000,g 10.0,4.0
# From MPEC 2021-R75
424P/LaSagra,e,8.6853,51.1807,312.4726,4.415556,0.1062248,0.69138809,354.7275,09/12.0/2021,2000,g 17.0,4.0
# From MPEC 2021-R75
425P/Kowalski,e,16.4214,210.0884,200.7293,6.328643,0.0619068,0.54333553,359.4800,09/12.0/2021,2000,g 12.0,4.0
# From MPC107687
1I/`Oumuamua,h,09/09.4886/2017,122.6778,24.5997,241.6845,1.199252,0.255240,2000,23.0,2.0
# From MPEC 2020-K19
2I/Borisov,h,12/08.5549/2019,44.0527,308.1480,209.1251,3.356636,2.006548,2000,11.0,4.0
